{
    "links": {
        "self": "http://www.neowsapp.com/rest/v1/neo/3789723?api_key=iIulBulltgU6a56xZRHN4H3l9WmuAYTsLGpBGhQ2"
    },
    "id": "3789723",
    "neo_reference_id": "3789723",
    "name": "(2017 WP16)",
    "designation": "2017 WP16",
    "nasa_jpl_url": "http://ssd.jpl.nasa.gov/sbdb.cgi?sstr=3789723",
    "absolute_magnitude_h": 27.5,
    "estimated_diameter": {
        "kilometers": {
            "estimated_diameter_min": 0.008405334,
            "estimated_diameter_max": 0.0187948982
        },
        "meters": {
            "estimated_diameter_min": 8.4053340207,
            "estimated_diameter_max": 18.7948982439
        },
        "miles": {
            "estimated_diameter_min": 0.0052228308,
            "estimated_diameter_max": 0.0116786047
        },
        "feet": {
            "estimated_diameter_min": 27.5765560686,
            "estimated_diameter_max": 61.6630539546
        }
    },
    "is_potentially_hazardous_asteroid": false,
    "close_approach_data": [
        {
            "close_approach_date": "2017-11-22",
            "close_approach_date_full": "2017-Nov-22 17:39",
            "epoch_date_close_approach": 1511372340000,
            "relative_velocity": {
                "kilometers_per_second": "7.1625755213",
                "kilometers_per_hour": "25785.2718766648",
                "miles_per_hour": "16021.9651835865"
            },
            "miss_distance": {
                "astronomical": "0.0365630034",
                "lunar": "14.2230083226",
                "kilometers": "5469747.429442758",
                "miles": "3398743.4508277404"
            },
            "orbiting_body": "Earth"
        }
    ],
    "orbital_data": {
        "orbit_id": "1",
        "orbit_determination_date": "2017-11-27 13:42:03",
        "first_observation_date": "2017-11-26",
        "last_observation_date": "2017-11-27",
        "data_arc_in_days": 1,
        "observations_used": 30,
        "orbit_uncertainty": "8",
        "minimum_orbit_intersection": ".0315101",
        "jupiter_tisserand_invariant": "3.319",
        "epoch_osculation": "2458084.5",
        "eccentricity": ".5665394769145166",
        "semi_major_axis": "2.352174713818617",
        "inclination": "2.244655656526599",
        "ascending_node_longitude": "65.18338818901547",
        "orbital_period": "1317.658270465501",
        "perihelion_distance": "1.019574881840265",
        "perihelion_argument": "347.724528237682",
        "aphelion_distance": "3.684774545796969",
        "perihelion_time": "2458074.535820441759",
        "mean_anomaly": "2.72233303684992",
        "mean_motion": ".2732119609986735",
        "equinox": "J2000",
        "orbit_class": {
            "orbit_class_type": "AMO",
            "orbit_class_description": "Near-Earth asteroid orbits similar to that of 1221 Amor",
            "orbit_class_range": "1.017 AU < q (perihelion) < 1.3 AU"
        }
    },
    "is_sentry_object": false
}